[
    {
        "Altitude(m)": 604969.0889887686,
        "Argument of Periapsis(deg)": 0.0,
        "Eccentricity": 0.0,
        "Inclination(deg)": 60.0,
        "Latitude(deg)": -0.0925374267575558,
        "Longitude(deg)": 79.9775276710021,
        "Mean Anomaly(deg)": 0.0,
        "RAAN(deg)": 180.0,
        "Satellite Name": "Test1 792",
        "Satellite Number": 792,
        "Semi-Major Axis(m)": 6980739.136638005,
        "Time(s)": 0
    },
    {
        "Altitude(m)": 604900.0293475358,
        "Argument of Periapsis(deg)": 0.00010418945913296404,
        "Eccentricity": 0.0,
        "Inclination(deg)": 60.0,
        "Latitude(deg)": 0.447888660719649,
        "Longitude(deg)": 80.24565031913112,
        "Mean Anomaly(deg)": 0.6201061454618275,
        "RAAN(deg)": 179.99957995086024,
        "Satellite Name": "Test1 792",
        "Satellite Number": 792,
        "Semi-Major Axis(m)": 6980739.136638005,
        "Time(s)": 10
    },
    {
        "Altitude(m)": 604834.1977765145,
        "Argument of Periapsis(deg)": 0.0002083789182659281,
        "Eccentricity": 0.0,
        "Inclination(deg)": 60.0,
        "Latitude(deg)": 0.988311519340249,
        "Longitude(deg)": 80.51382438903347,
        "Mean Anomaly(deg)": 1.240212290923655,
        "RAAN(deg)": 179.99915990172053,
        "Satellite Name": "Test1 792",
        "Satellite Number": 792,
        "Semi-Major Axis(m)": 6980739.136638005,
        "Time(s)": 20
    },
    {
        "Altitude(m)": 604771.6006543308,
        "Argument of Periapsis(deg)": 0.00031256837739889213,
        "Eccentricity": 0.0,
        "Inclination(deg)": 60.0,
        "Latitude(deg)": 1.5287140631108316,
        "Longitude(deg)": 80.78210427005428,
        "Mean Anomaly(deg)": 1.8603184363854828,
        "RAAN(deg)": 179.99873985258077,
        "Satellite Name": "Test1 792",
        "Satellite Number": 792,
        "Semi-Major Axis(m)": 6980739.136638005,
        "Time(s)": 30
    },
    {
        "Altitude(m)": 604712.2428297014,
        "Argument of Periapsis(deg)": 0.0004167578365318562,
        "Eccentricity": 0.0,
        "Inclination(deg)": 60.0,
        "Latitude(deg)": 2.0690791845745515,
        "Longitude(deg)": 81.05054492008686,
        "Mean Anomaly(deg)": 2.48042458184731,
        "RAAN(deg)": 179.99831980344103,
        "Satellite Name": "Test1 792",
        "Satellite Number": 792,
        "Semi-Major Axis(m)": 6980739.136638005,
        "Time(s)": 40
    },
    {
        "Altitude(m)": 604656.1276218996,
        "Argument of Periapsis(deg)": 0.0005209472956648203,
        "Eccentricity": 0.0,
        "Inclination(deg)": 60.0,
        "Latitude(deg)": 2.6093897448995085,
        "Longitude(deg)": 81.3192008890076,
        "Mean Anomaly(deg)": 3.1005307273091636,
        "RAAN(deg)": 179.99789975430127,
        "Satellite Name": "Test1 792",
        "Satellite Number": 792,
        "Semi-Major Axis(m)": 6980739.136638005,
        "Time(s)": 50
    },
    {
        "Altitude(m)": 604603.2568219472,
        "Argument of Periapsis(deg)": 0.0006251367547977843,
        "Eccentricity": 0.0,
        "Inclination(deg)": 60.0,
        "Latitude(deg)": 3.1496285639279686,
        "Longitude(deg)": 81.58812685507333,
        "Mean Anomaly(deg)": 3.720636872770991,
        "RAAN(deg)": 179.99747970516157,
        "Satellite Name": "Test1 792",
        "Satellite Number": 792,
        "Semi-Major Axis(m)": 6980739.136638005,
        "Time(s)": 60
    },
    {
        "Altitude(m)": 604553.6306945549,
        "Argument of Periapsis(deg)": 0.0007293262139307483,
        "Eccentricity": 0.0,
        "Inclination(deg)": 60.0,
        "Latitude(deg)": 3.689778410172563,
        "Longitude(deg)": 81.85737816143654,
        "Mean Anomaly(deg)": 4.340743018232819,
        "RAAN(deg)": 179.9970596560218,
        "Satellite Name": "Test1 792",
        "Satellite Number": 792,
        "Semi-Major Axis(m)": 6980739.136638005,
        "Time(s)": 70
    },
    {
        "Altitude(m)": 604507.2479808469,
        "Argument of Periapsis(deg)": 0.0008335156730637124,
        "Eccentricity": 0.0,
        "Inclination(deg)": 60.0,
        "Latitude(deg)": 4.229821990744791,
        "Longitude(deg)": 82.12700983993471,
        "Mean Anomaly(deg)": 4.960849163694646,
        "RAAN(deg)": 179.99663960688207,
        "Satellite Name": "Test1 792",
        "Satellite Number": 792,
        "Semi-Major Axis(m)": 6980739.136638005,
        "Time(s)": 80
    },
    {
        "Altitude(m)": 604464.105901793,
        "Argument of Periapsis(deg)": 0.0009377051321966765,
        "Eccentricity": 0.0,
        "Inclination(deg)": 60.0,
        "Latitude(deg)": 4.76974194120404,
        "Longitude(deg)": 82.39707714792765,
        "Mean Anomaly(deg)": 5.580955309156474,
        "RAAN(deg)": 179.9962195577423,
        "Satellite Name": "Test1 792",
        "Satellite Number": 792,
        "Semi-Major Axis(m)": 6980739.136638005,
        "Time(s)": 90
    },
    {
        "Altitude(m)": 604424.2001624238,
        "Argument of Periapsis(deg)": 0.0010418945913296407,
        "Eccentricity": 0.0,
        "Inclination(deg)": 60.0,
        "Latitude(deg)": 5.309520815312476,
        "Longitude(deg)": 82.66763610534144,
        "Mean Anomaly(deg)": 6.2010614546183005,
        "RAAN(deg)": 179.9957995086026,
        "Satellite Name": "Test1 792",
        "Satellite Number": 792,
        "Semi-Major Axis(m)": 6980739.136638005,
        "Time(s)": 100
    },
    {
        "Altitude(m)": 604387.5249567748,
        "Argument of Periapsis(deg)": 0.0011460840504626045,
        "Eccentricity": 0.0,
        "Inclination(deg)": 60.0,
        "Latitude(deg)": 5.849141074681272,
        "Longitude(deg)": 82.93874251907147,
        "Mean Anomaly(deg)": 6.821167600080129,
        "RAAN(deg)": 179.9953794594628,
        "Satellite Name": "Test1 792",
        "Satellite Number": 792,
        "Semi-Major Axis(m)": 6980739.136638005,
        "Time(s)": 110
    },
    {
        "Altitude(m)": 604354.0729735652,
        "Argument of Periapsis(deg)": 0.0012502735095955685,
        "Eccentricity": 0.0,
        "Inclination(deg)": 60.0,
        "Latitude(deg)": 6.388585078295522,
        "Longitude(deg)": 83.21045252052284,
        "Mean Anomaly(deg)": 7.441273745541956,
        "RAAN(deg)": 179.99495941032308,
        "Satellite Name": "Test1 792",
        "Satellite Number": 792,
        "Semi-Major Axis(m)": 6980739.136638005,
        "Time(s)": 120
    },
    {
        "Altitude(m)": 604323.8354026357,
        "Argument of Periapsis(deg)": 0.0013544629687285324,
        "Eccentricity": 0.0,
        "Inclination(deg)": 60.0,
        "Latitude(deg)": 6.927835071902854,
        "Longitude(deg)": 83.48282310344274,
        "Mean Anomaly(deg)": 8.061379891003783,
        "RAAN(deg)": 179.99453936118334,
        "Satellite Name": "Test1 792",
        "Satellite Number": 792,
        "Semi-Major Axis(m)": 6980739.136638005,
        "Time(s)": 130
    },
    {
        "Altitude(m)": 604296.8019421013,
        "Argument of Periapsis(deg)": 0.0014586524278614966,
        "Eccentricity": 0.0,
        "Inclination(deg)": 60.0,
        "Latitude(deg)": 7.466873177250655,
        "Longitude(deg)": 83.75591114920152,
        "Mean Anomaly(deg)": 8.681486036465637,
        "RAAN(deg)": 179.9941193120436,
        "Satellite Name": "Test1 792",
        "Satellite Number": 792,
        "Semi-Major Axis(m)": 6980739.136638005,
        "Time(s)": 140
    },
    {
        "Altitude(m)": 604272.9608062487,
        "Argument of Periapsis(deg)": 0.0015628418869944607,
        "Eccentricity": 0.0,
        "Inclination(deg)": 60.0,
        "Latitude(deg)": 8.00568138115845,
        "Longitude(deg)": 84.02977396529796,
        "Mean Anomaly(deg)": 9.301592181927465,
        "RAAN(deg)": 179.99369926290385,
        "Satellite Name": "Test1 792",
        "Satellite Number": 792,
        "Semi-Major Axis(m)": 6980739.136638005,
        "Time(s)": 150
    },
    {
        "Altitude(m)": 604252.2987341504,
        "Argument of Periapsis(deg)": 0.0016670313461274247,
        "Eccentricity": 0.0,
        "Inclination(deg)": 60.0,
        "Latitude(deg)": 8.544241524410038,
        "Longitude(deg)": 84.3044698242457,
        "Mean Anomaly(deg)": 9.921698327389292,
        "RAAN(deg)": 179.9932792137641,
        "Satellite Name": "Test1 792",
        "Satellite Number": 792,
        "Semi-Major Axis(m)": 6980739.136638005,
        "Time(s)": 160
    },
    {
        "Altitude(m)": 604234.8009990157,
        "Argument of Periapsis(deg)": 0.0017712208052603888,
        "Eccentricity": 0.0,
        "Inclination(deg)": 60.0,
        "Latitude(deg)": 9.082535290449153,
        "Longitude(deg)": 84.5800569899957,
        "Mean Anomaly(deg)": 10.541804472851119,
        "RAAN(deg)": 179.99285916462438,
        "Satellite Name": "Test1 792",
        "Satellite Number": 792,
        "Semi-Major Axis(m)": 6980739.136638005,
        "Time(s)": 170
    },
    {
        "Altitude(m)": 604220.4514182329,
        "Argument of Periapsis(deg)": 0.001875410264393353,
        "Eccentricity": 0.0,
        "Inclination(deg)": 60.0,
        "Latitude(deg)": 9.620544193864715,
        "Longitude(deg)": 84.8565942576726,
        "Mean Anomaly(deg)": 11.161910618312948,
        "RAAN(deg)": 179.99243911548464,
        "Satellite Name": "Test1 792",
        "Satellite Number": 792,
        "Semi-Major Axis(m)": 6980739.136638005,
        "Time(s)": 180
    },
    {
        "Altitude(m)": 604209.232364134,
        "Argument of Periapsis(deg)": 0.0019795997235263173,
        "Eccentricity": 0.0,
        "Inclination(deg)": 60.0,
        "Latitude(deg)": 10.15824956864894,
        "Longitude(deg)": 85.13414149378063,
        "Mean Anomaly(deg)": 11.782016763774774,
        "RAAN(deg)": 179.99201906634488,
        "Satellite Name": "Test1 792",
        "Satellite Number": 792,
        "Semi-Major Axis(m)": 6980739.136638005,
        "Time(s)": 190
    }
]